QIANFAN-49              
1 62250U 24232P   25362.17159774  .00000075  00000+0  96979-4 0  9992
2 62250  89.0012  39.6791 0015499 144.8172 215.4006 13.50981495 69926
QIANFAN-50              
1 62251U 24232Q   25362.27035198  .00000078  00000+0  10270-3 0  9999
2 62251  89.0017  39.6780 0017133 146.3700 213.8542 13.50978345 69962
QIANFAN-51              
1 62252U 24232R   25362.25390035  .00000084  00000+0  11149-3 0  9995
2 62252  89.0011  39.6727 0014526 148.8328 211.3687 13.50981052 69955
QIANFAN-52              
1 62253U 24232S   25362.28273070  .00000083  00000+0  10967-3 0  9994
2 62253  89.0007  39.5427 0016718 142.4008 217.8316 13.50979152 70047
QIANFAN-53              
1 62254U 24232T   25362.33617916  .00000077  00000+0  10077-3 0  9997
2 62254  89.0015  39.6430 0015582 142.9149 217.3082 13.50981596 70018
QIANFAN-54              
1 62255U 24232U   25362.15512838  .00000077  00000+0  10133-3 0  9998
2 62255  89.0006  39.3383 0002833 146.1432 213.9901 13.50981901101498
QIANFAN-55              
1 62785U 25016A   25362.25517571  .00000197  00000+0  28701-3 0  9990
2 62785  88.9784 101.6102 0015593 305.2288  54.7403 13.50980610 49285
QIANFAN-56              
1 62786U 25016B   25362.27166858  .00000199  00000+0  29001-3 0  9997
2 62786  88.9757 101.4408 0014264 307.9825  52.0037 13.50983504 49338
